{"type": "FeatureCollection", "features": [ {"type": "Feature", "properties": {"norad_id": 28659, "name": "DIRECTV 8", "group": "intelsat", "lat": -0.020527721598876166, "lon": 161.6037641495769, "alt_km": 35788.335762530085, "timestamp": "2025-12-03T13:52:09.233081+00:00", "meta": {"OBJECT_NAME": "DIRECTV 8", "OBJECT_ID": "2005-019A", "EPOCH": "2025-12-03T06:20:29.461632", "MEAN_MOTION": 1.00271354, "ECCENTRICITY": 0.00033056, "INCLINATION": 0.0155, "RA_OF_ASC_NODE": 307.5844, "ARG_OF_PERICENTER": 312.9543, "MEAN_ANOMALY": 147.9034, "EPHEMERIS_TYPE": 0, "CLASSIFICATION_TYPE": "U", "NORAD_CAT_ID": 28659, "ELEMENT_SET_NO": 999, "REV_AT_EPOCH": 7510, "BSTAR": 0, "MEAN_MOTION_DOT": 2e-07, "MEAN_MOTION_DDOT": 0}, "tle": {"line1": "1 28659U 05019A   25337.26422988  .00000020  00000+0  00000+0 0  9996", "line2": "2 28659   0.0155 307.5844 0003305 312.9543 147.9034  1.00271354 75106"}}, "geometry": {"type": "Point", "coordinates": [161.6037641495769, -0.020527721598876166]}}, {"type": "Feature", "properties": {"norad_id": 28702, "name": "GALAXY 28 (G-28)", "group": "intelsat", "lat": 2.597196262520504, "lon": -168.02057584545432, "alt_km": 35779.81358787297, "timestamp": "2025-12-03T13:52:09.233095+00:00", "meta": {"OBJECT_NAME": "GALAXY 28 (G-28)", "OBJECT_ID": "2005-022A", "EPOCH": "2025-12-03T06:29:06.137088", "MEAN_MOTION": 1.00272277, "ECCENTRICITY": 0.00026526, "INCLINATION": 2.7945, "RA_OF_ASC_NODE": 81.3907, "ARG_OF_PERICENTER": 169.4505, "MEAN_ANOMALY": 190.0951, "EPHEMERIS_TYPE": 0, "CLASSIFICATION_TYPE": "U", "NORAD_CAT_ID": 28702, "ELEMENT_SET_NO": 999, "REV_AT_EPOCH": 5000, "BSTAR": 0, "MEAN_MOTION_DOT": -1.7e-06, "MEAN_MOTION_DDOT": 0}, "tle": {"line1": "1 28702U 05022A   25337.27020992 -.00000170  00000+0  00000+0 0  9996", "line2": "2 28702   2.7945  81.3907 0002652 169.4505 190.0951  1.00272277 50009"}}, "geometry": {"type": "Point", "coordinates": [-168.02057584545432, 2.597196262520504]}}, {"type": "Feature", "properties": {"norad_id": 29236, "name": "GALAXY 16 (G-16)", "group": "intelsat", "lat": -0.021324933667490005, "lon": -178.36433674544116, "alt_km": 35782.96877867533, "timestamp": "2025-12-03T13:52:09.233108+00:00", "meta": {"OBJECT_NAME": "GALAXY 16 (G-16)", "OBJECT_ID": "2006-023A", "EPOCH": "2025-12-03T06:26:06.424224", "MEAN_MOTION": 1.00270146, "ECCENTRICITY": 0.00029065, "INCLINATION": 0.0257, "RA_OF_ASC_NODE": 218.47, "ARG_OF_PERICENTER": 36.3129, "MEAN_ANOMALY": 175.0947, "EPHEMERIS_TYPE": 0, "CLASSIFICATION_TYPE": "U", "NORAD_CAT_ID": 29236, "ELEMENT_SET_NO": 999, "REV_AT_EPOCH": 7100, "BSTAR": 0, "MEAN_MOTION_DOT": -1.08e-06, "MEAN_MOTION_DDOT": 0}, "tle": {"line1": "1 29236U 06023A   25337.26812991 -.00000108  00000+0  00000+0 0  9999", "line2": "2 29236   0.0257 218.4700 0002906  36.3129 175.0947  1.00270146 71003"}}, "geometry": {"type": "Point", "coordinates": [-178.36433674544116, -0.021324933667490005]}}, {"type": "Feature", "properties": {"norad_id": 29494, "name": "DIRECTV 9S", "group": "intelsat", "lat": 1.8873930437410114, "lon": 179.4465112509388, "alt_km": 35781.94826289872, "timestamp": "2025-12-03T13:52:09.233120+00:00", "meta": {"OBJECT_NAME": "DIRECTV 9S", "OBJECT_ID": "2006-043A", "EPOCH": "2025-12-03T06:25:28.983648", "MEAN_MOTION": 1.00270592, "ECCENTRICITY": 0.00031994, "INCLINATION": 1.9138, "RA_OF_ASC_NODE": 83.3117, "ARG_OF_PERICENTER": 167.9889, "MEAN_ANOMALY": 176.2269, "EPHEMERIS_TYPE": 0, "CLASSIFICATION_TYPE": "U", "NORAD_CAT_ID": 29494, "ELEMENT_SET_NO": 999, "REV_AT_EPOCH": 4941, "BSTAR": 0, "MEAN_MOTION_DOT": -9.5e-07, "MEAN_MOTION_DDOT": 0}, "tle": {"line1": "1 29494U 06043A   25337.26769657 -.00000095  00000+0  00000+0 0  9992", "line2": "2 29494   1.9138  83.3117 0003199 167.9889 176.2269  1.00270592 49412"}}, "geometry": {"type": "Point", "coordinates": [179.4465112509388, 1.8873930437410114]}}, {"type": "Feature", "properties": {"norad_id": 31307, "name": "GALAXY 17 (G-17)", "group": "intelsat", "lat": 2.2528460605927587, "lon": -164.34328764006258, "alt_km": 35767.356117783514, "timestamp": "2025-12-03T13:52:09.233132+00:00", "meta": {"OBJECT_NAME": "GALAXY 17 (G-17)", "OBJECT_ID": "2007-016B", "EPOCH": "2025-12-03T06:40:38.582976", "MEAN_MOTION": 1.00270451, "ECCENTRICITY": 0.00061166, "INCLINATION": 2.4742, "RA_OF_ASC_NODE": 82.3939, "ARG_OF_PERICENTER": 156.5605, "MEAN_ANOMALY": 208.5802, "EPHEMERIS_TYPE": 0, "CLASSIFICATION_TYPE": "U", "NORAD_CAT_ID": 31307, "ELEMENT_SET_NO": 999, "REV_AT_EPOCH": 6784, "BSTAR": 0, "MEAN_MOTION_DOT": -1.88e-06, "MEAN_MOTION_DDOT": 0}, "tle": {"line1": "1 31307U 07016B   25337.27822434 -.00000188  00000+0  00000+0 0  9996", "line2": "2 31307   2.4742  82.3939 0006116 156.5605 208.5802  1.00270451 67841"}}, "geometry": {"type": "Point", "coordinates": [-164.34328764006258, 2.2528460605927587]}}, {"type": "Feature", "properties": {"norad_id": 31862, "name": "DIRECTV 10", "group": "intelsat", "lat": 0.00010821307348867473, "lon": 177.88115520634003, "alt_km": 35784.95801029399, "timestamp": "2025-12-03T13:52:09.233144+00:00", "meta": {"OBJECT_NAME": "DIRECTV 10", "OBJECT_ID": "2007-032A", "EPOCH": "2025-12-03T01:16:54.672384", "MEAN_MOTION": 1.00270565, "ECCENTRICITY": 3.529e-05, "INCLINATION": 0.0055, "RA_OF_ASC_NODE": 216.2593, "ARG_OF_PERICENTER": 326.4946, "MEAN_ANOMALY": 165.8273, "EPHEMERIS_TYPE": 0, "CLASSIFICATION_TYPE": "U", "NORAD_CAT_ID": 31862, "ELEMENT_SET_NO": 999, "REV_AT_EPOCH": 4362, "BSTAR": 0, "MEAN_MOTION_DOT": -8.4e-07, "MEAN_MOTION_DDOT": 0}, "tle": {"line1": "1 31862U 07032A   25337.05341056 -.00000084  00000+0  00000+0 0  9997", "line2": "2 31862   0.0055 216.2593 0000352 326.4946 165.8273  1.00270565 43627"}}, "geometry": {"type": "Point", "coordinates": [177.88115520634003, 0.00010821307348867473]}}, {"type": "Feature", "properties": {"norad_id": 32253, "name": "INTELSAT 11 (IS-11)", "group": "intelsat", "lat": 2.924342554369215, "lon": -173.3424260364232, "alt_km": 36110.02503064703, "timestamp": "2025-12-03T13:52:09.233156+00:00", "meta": {"OBJECT_NAME": "INTELSAT 11 (IS-11)", "OBJECT_ID": "2007-044B", "EPOCH": "2025-12-03T04:45:23.573664", "MEAN_MOTION": 0.990473, "ECCENTRICITY": 0.00092808, "INCLINATION": 3.0534, "RA_OF_ASC_NODE": 81.0833, "ARG_OF_PERICENTER": 160.9491, "MEAN_ANOMALY": 169.3212, "EPHEMERIS_TYPE": 0, "CLASSIFICATION_TYPE": "U", "NORAD_CAT_ID": 32253, "ELEMENT_SET_NO": 999, "REV_AT_EPOCH": 6650, "BSTAR": 0, "MEAN_MOTION_DOT": 4e-08, "MEAN_MOTION_DDOT": 0}, "tle": {"line1": "1 32253U 07044B   25337.19818951  .00000004  00000+0  00000+0 0  9994", "line2": "2 32253   3.0534  81.0833 0009280 160.9491 169.3212  0.99047300 66507"}}, "geometry": {"type": "Point", "coordinates": [-173.3424260364232, 2.924342554369215]}}, {"type": "Feature", "properties": {"norad_id": 32388, "name": "HORIZONS-2", "group": "intelsat", "lat": 1.7176921591168293, "lon": -153.1320768590243, "alt_km": 35774.24038292818, "timestamp": "2025-12-03T13:52:09.233167+00:00", "meta": {"OBJECT_NAME": "HORIZONS-2", "OBJECT_ID": "2007-063B", "EPOCH": "2025-12-03T06:33:20.731104", "MEAN_MOTION": 1.00272115, "ECCENTRICITY": 0.00049707, "INCLINATION": 2.095, "RA_OF_ASC_NODE": 83.066, "ARG_OF_PERICENTER": 180.648, "MEAN_ANOMALY": 193.2025, "EPHEMERIS_TYPE": 0, "CLASSIFICATION_TYPE": "U", "NORAD_CAT_ID": 32388, "ELEMENT_SET_NO": 999, "REV_AT_EPOCH": 6585, "BSTAR": 0, "MEAN_MOTION_DOT": -2.35e-06, "MEAN_MOTION_DDOT": 0}, "tle": {"line1": "1 32388U 07063B   25337.27315661 -.00000235  00000+0  00000+0 0  9990", "line2": "2 32388   2.0950  83.0660 0004970 180.6480 193.2025  1.00272115 65857"}}, "geometry": {"type": "Point", "coordinates": [-153.1320768590243, 1.7176921591168293]}}, {"type": "Feature", "properties": {"norad_id": 32729, "name": "DIRECTV 11", "group": "intelsat", "lat": -0.0036658372256240766, "lon": -178.51144947441136, "alt_km": 35784.580346103765, "timestamp": "2025-12-03T13:52:09.233180+00:00", "meta": {"OBJECT_NAME": "DIRECTV 11", "OBJECT_ID": "2008-013A", "EPOCH": "2025-12-02T10:08:34.465632", "MEAN_MOTION": 1.0027113, "ECCENTRICITY": 4.09e-05, "INCLINATION": 0.0114, "RA_OF_ASC_NODE": 215.6397, "ARG_OF_PERICENTER": 330.8354, "MEAN_ANOMALY": 298.008, "EPHEMERIS_TYPE": 0, "CLASSIFICATION_TYPE": "U", "NORAD_CAT_ID": 32729, "ELEMENT_SET_NO": 999, "REV_AT_EPOCH": 4362, "BSTAR": 0, "MEAN_MOTION_DOT": -1.05e-06, "MEAN_MOTION_DDOT": 0}, "tle": {"line1": "1 32729U 08013A   25336.42262113 -.00000105  00000+0  00000+0 0  9990", "line2": "2 32729   0.0114 215.6397 0000409 330.8354 298.0080  1.00271130 43620"}}, "geometry": {"type": "Point", "coordinates": [-178.51144947441136, -0.0036658372256240766]}}, {"type": "Feature", "properties": {"norad_id": 32951, "name": "GALAXY 18 (G-18)", "group": "intelsat", "lat": -0.0006436533285090393, "lon": 157.61965616669343, "alt_km": 35787.524573213544, "timestamp": "2025-12-03T13:52:09.233192+00:00", "meta": {"OBJECT_NAME": "GALAXY 18 (G-18)", "OBJECT_ID": "2008-024A", "EPOCH": "2025-12-02T16:37:27.594336", "MEAN_MOTION": 1.00272815, "ECCENTRICITY": 0.00033974, "INCLINATION": 0.0216, "RA_OF_ASC_NODE": 348.532, "ARG_OF_PERICENTER": 266.2767, "MEAN_ANOMALY": 303.3251, "EPHEMERIS_TYPE": 0, "CLASSIFICATION_TYPE": "U", "NORAD_CAT_ID": 32951, "ELEMENT_SET_NO": 999, "REV_AT_EPOCH": 4388, "BSTAR": 0, "MEAN_MOTION_DOT": 0, "MEAN_MOTION_DDOT": 0}, "tle": {"line1": "1 32951U 08024A   25336.69268049  .00000000  00000+0  00000+0 0  9995", "line2": "2 32951   0.0216 348.5320 0003397 266.2767 303.3251  1.00272815 43880"}}, "geometry": {"type": "Point", "coordinates": [157.61965616669343, -0.0006436533285090393]}}]}